{
    "links": {
        "self": "http://www.neowsapp.com/rest/v1/neo/3699905?api_key=iIulBulltgU6a56xZRHN4H3l9WmuAYTsLGpBGhQ2"
    },
    "id": "3699905",
    "neo_reference_id": "3699905",
    "name": "(2014 WP368)",
    "designation": "2014 WP368",
    "nasa_jpl_url": "http://ssd.jpl.nasa.gov/sbdb.cgi?sstr=3699905",
    "absolute_magnitude_h": 22.4,
    "estimated_diameter": {
        "kilometers": {
            "estimated_diameter_min": 0.0880146521,
            "estimated_diameter_max": 0.1968067451
        },
        "meters": {
            "estimated_diameter_min": 88.0146520901,
            "estimated_diameter_max": 196.8067450894
        },
        "miles": {
            "estimated_diameter_min": 0.0546897524,
            "estimated_diameter_max": 0.122290004
        },
        "feet": {
            "estimated_diameter_min": 288.7619911632,
            "estimated_diameter_max": 645.6914415591
        }
    },
    "is_potentially_hazardous_asteroid": false,
    "close_approach_data": [
        {
            "close_approach_date": "1981-12-11",
            "close_approach_date_full": "1981-Dec-11 20:34",
            "epoch_date_close_approach": 376950840000,
            "relative_velocity": {
                "kilometers_per_second": "8.1083657531",
                "kilometers_per_hour": "29190.1167110945",
                "miles_per_hour": "18137.6033530687"
            },
            "miss_distance": {
                "astronomical": "0.381968862",
                "lunar": "148.585887318",
                "kilometers": "57141728.16152394",
                "miles": "35506223.434112772"
            },
            "orbiting_body": "Earth"
        },
        {
            "close_approach_date": "2014-12-13",
            "close_approach_date_full": "2014-Dec-13 23:05",
            "epoch_date_close_approach": 1418511900000,
            "relative_velocity": {
                "kilometers_per_second": "5.9738870886",
                "kilometers_per_hour": "21505.9935188372",
                "miles_per_hour": "13362.988028413"
            },
            "miss_distance": {
                "astronomical": "0.2361162794",
                "lunar": "91.8492326866",
                "kilometers": "35322492.470564878",
                "miles": "21948379.0613481964"
            },
            "orbiting_body": "Earth"
        },
        {
            "close_approach_date": "2043-12-12",
            "close_approach_date_full": "2043-Dec-12 19:21",
            "epoch_date_close_approach": 2333560860000,
            "relative_velocity": {
                "kilometers_per_second": "7.0798325019",
                "kilometers_per_hour": "25487.397006762",
                "miles_per_hour": "15836.8773234517"
            },
            "miss_distance": {
                "astronomical": "0.2867991529",
                "lunar": "111.5648704781",
                "kilometers": "42904542.391644323",
                "miles": "26659646.4179367374"
            },
            "orbiting_body": "Earth"
        }
    ],
    "orbital_data": {
        "orbit_id": "11",
        "orbit_determination_date": "2017-04-06 08:37:00",
        "first_observation_date": "2014-11-30",
        "last_observation_date": "2015-01-21",
        "data_arc_in_days": 52,
        "observations_used": 30,
        "orbit_uncertainty": "6",
        "minimum_orbit_intersection": ".23591",
        "jupiter_tisserand_invariant": "3.196",
        "epoch_osculation": "2459000.5",
        "eccentricity": ".528820069665592",
        "semi_major_axis": "2.580241845739391",
        "inclination": "9.353030208067825",
        "ascending_node_longitude": "94.51601829297259",
        "orbital_period": "1513.871622545507",
        "perihelion_distance": "1.21575817312141",
        "perihelion_argument": "343.439577740101",
        "aphelion_distance": "3.944725518357371",
        "perihelion_time": "2458513.982328742108",
        "mean_anomaly": "115.6943290596467",
        "mean_motion": ".2378008773258304",
        "equinox": "J2000",
        "orbit_class": {
            "orbit_class_type": "AMO",
            "orbit_class_description": "Near-Earth asteroid orbits similar to that of 1221 Amor",
            "orbit_class_range": "1.017 AU < q (perihelion) < 1.3 AU"
        }
    },
    "is_sentry_object": false
}